IRIDIUM 144             
1 43249U 18030A   25361.04188859  .00000103  00000+0  29670-4 0  9995
2 43249  86.3964   2.3646 0002371  90.3415 269.8053 14.34218923405465
IRIDIUM 149             
1 43250U 18030B   25361.04823084  .00000149  00000+0  46239-4 0  9993
2 43250  86.3966   2.3312 0002234  91.0371 269.1080 14.34219219405480
IRIDIUM 157             
1 43251U 18030C   25360.99748947  .00000304  00000+0  10163-3 0  9990
2 43251  86.3967   2.4017 0002110  86.7653 273.3784 14.34219778405457
IRIDIUM 140             
1 43252U 18030D   25361.08628718  .00000160  00000+0  50033-4 0  9996
2 43252  86.3967   2.3776 0002337  91.4079 268.7385 14.34219197405523
IRIDIUM 145             
1 43253U 18030E   25361.07360230  .00000304  00000+0  10154-3 0  9997
2 43253  86.3966   2.3553 0002609  87.7819 272.3676 14.34219670405450
IRIDIUM 146             
1 43254U 18030F   25360.91505138  .00000328  00000+0  11019-3 0  9995
2 43254  86.3966   2.4346 0002392  88.7704 271.3766 14.34218909405447
IRIDIUM 148             
1 43255U 18030G   25361.09262968  .00000071  00000+0  18440-4 0  9998
2 43255  86.3965   2.4005 0002166  87.7391 272.4053 14.34218617405503
IRIDIUM 142             
1 43256U 18030H   25361.06091736  .00000091  00000+0  25607-4 0  9994
2 43256  86.3962   2.3093 0002605  87.9285 272.2209 14.34218753405466
